[{"OBJECT_NAME":"TOMORROW-S1","OBJECT_ID":"2024-149M","EPOCH":"2026-03-09T17:23:34.533600","MEAN_MOTION":15.31198363,"ECCENTRICITY":0.00018188,"INCLINATION":97.3791,"RA_OF_ASC_NODE":149.6044,"ARG_OF_PERICENTER":207.204,"MEAN_ANOMALY":152.9106,"EPHEMERIS_TYPE":0,"CLASSIFICATION_TYPE":"U","NORAD_CAT_ID":60479,"ELEMENT_SET_NO":999,"REV_AT_EPOCH":8686,"BSTAR":0.0002885603,"MEAN_MOTION_DOT":8.62e-5,"MEAN_MOTION_DDOT":0},{"OBJECT_NAME":"STARLINK-32413","OBJECT_ID":"2024-187S","EPOCH":"2026-03-09T06:17:15.794304","MEAN_MOTION":15.30183449,"ECCENTRICITY":0.00014124,"INCLINATION":53.1606,"RA_OF_ASC_NODE":67.3298,"ARG_OF_PERICENTER":80.6883,"MEAN_ANOMALY":279.4278,"EPHEMERIS_TYPE":0,"CLASSIFICATION_TYPE":"U","NORAD_CAT_ID":61590,"ELEMENT_SET_NO":999,"REV_AT_EPOCH":7901,"BSTAR":6.3342625e-5,"MEAN_MOTION_DOT":1.516e-5,"MEAN_MOTION_DDOT":0}]
