TOMORROW-S1             
1 60479U 24149M   26068.72470524  .00008620  00000+0  28856-3 0  9996
2 60479  97.3791 149.6044 0001819 207.2040 152.9106 15.31198362 86867
STARLINK-32413          
1 61590U 24187S   26068.26198836  .00001516  00000+0  63343-4 0  9993
2 61590  53.1606  67.3298 0001412  80.6883 279.4278 15.30183449 79014
